[Satellite]
VERSION=1.1
NAME=IRNSS-1B
NICKNAME=IRNSS-1B
TLE1=1 39635U 14017A   17184.88195833  .00000060  00000-0  00000-0 0  9991
TLE2=2 39635  29.0565 294.6425 0022827 180.7049 179.3148  1.00269235 11808
